[{"OBJECT_NAME":"GEOSCAN 5 (RS92S5)","OBJECT_ID":"2025-155R","EPOCH":"2026-03-09T22:01:07.273920","MEAN_MOTION":15.30265233,"ECCENTRICITY":0.00070849,"INCLINATION":97.4462,"RA_OF_ASC_NODE":37.7456,"ARG_OF_PERICENTER":154.5846,"MEAN_ANOMALY":205.5745,"EPHEMERIS_TYPE":0,"CLASSIFICATION_TYPE":"U","NORAD_CAT_ID":64891,"ELEMENT_SET_NO":999,"REV_AT_EPOCH":6562,"BSTAR":0.00068639307,"MEAN_MOTION_DOT":0.00020065,"MEAN_MOTION_DDOT":0},{"OBJECT_NAME":"STARLINK-34897","OBJECT_ID":"2025-176Q","EPOCH":"2026-03-09T12:48:58.027680","MEAN_MOTION":15.30186523,"ECCENTRICITY":0.0001153,"INCLINATION":53.1581,"RA_OF_ASC_NODE":153.667,"ARG_OF_PERICENTER":62.1896,"MEAN_ANOMALY":297.9221,"EPHEMERIS_TYPE":0,"CLASSIFICATION_TYPE":"U","NORAD_CAT_ID":65212,"ELEMENT_SET_NO":999,"REV_AT_EPOCH":3309,"BSTAR":0.0010109101,"MEAN_MOTION_DOT":0.00029688,"MEAN_MOTION_DDOT":0}]
